ORBCOMM-X               
1 21576U 91050C   24292.46279605  .00001815  00000+0  55681-3 0  9996
2 21576  98.3770 357.6412 0003563 178.9262 181.1936 14.42833964747255
ORBCOMM FM01            
1 23545U 95017A   24292.79157074  .00020614  00000+0  24767-2 0  9990
2 23545  69.9655 313.6453 0008051 318.2007  41.8529 14.83939725576616
ORBCOMM FM02            
1 23546U 95017B   24292.85495183  .00020468  00000+0  24687-2 0  9992
2 23546  69.9684 333.1445 0010011 318.0808  41.9576 14.83770536576260
ORBCOMM FM08            
1 25112U 97084A   24292.83240312  .00008666  00000+0  25522-2 0  9994
2 25112  45.0135  85.0401 0006815 123.6927 236.4575 14.43940560406467
ORBCOMM FM10            
1 25113U 97084B   24292.85164031  .00008615  00000+0  25448-2 0  9991
2 25113  45.0142  86.9574 0003951  96.1422 263.9879 14.43810792581615
ORBCOMM FM11            
1 25114U 97084C   24292.81752866  .00007581  00000+0  22532-2 0  9999
2 25114  45.0130  87.3518 0004760  93.6892 266.4502 14.43623976406576
ORBCOMM FM12            
1 25115U 97084D   24292.71231886  .00007222  00000+0  21505-2 0  9994
2 25115  45.0140  87.6076 0003869  95.8652 264.2640 14.43589836406358
ORBCOMM FM09            
1 25116U 97084E   24292.86662534  .00007941  00000+0  23628-2 0  9995
2 25116  45.0142  87.6115 0004617  74.7881 285.3480 14.43532181406589
