<?xml version="1.0" encoding="UTF-8"?>
<ndm xmlns:xsi="http://www.w3.org/2001/XMLSchema-instance" xsi:noNamespaceSchemaLocation="https://sanaregistry.org/r/ndmxml_unqualified/ndmxml-2.0.0-master-2.0.xsd">
<omm id="CCSDS_OMM_VERS" version="2.0">
<header><CREATION_DATE/><ORIGINATOR/></header><body><segment><metadata><OBJECT_NAME>ORBCOMM-X</OBJECT_NAME><OBJECT_ID>1991-050C</OBJECT_ID><CENTER_NAME>EARTH</CENTER_NAME><REF_FRAME>TEME</REF_FRAME><TIME_SYSTEM>UTC</TIME_SYSTEM><MEAN_ELEMENT_THEORY>SGP4</MEAN_ELEMENT_THEORY></metadata><data><meanElements><EPOCH>2024-10-18T11:06:25.578720</EPOCH><MEAN_MOTION>14.42833964</MEAN_MOTION><ECCENTRICITY>.0003563</ECCENTRICITY><INCLINATION>98.3770</INCLINATION><RA_OF_ASC_NODE>357.6412</RA_OF_ASC_NODE><ARG_OF_PERICENTER>178.9262</ARG_OF_PERICENTER><MEAN_ANOMALY>181.1936</MEAN_ANOMALY></meanElements><tleParameters><EPHEMERIS_TYPE>0</EPHEMERIS_TYPE><CLASSIFICATION_TYPE>U</CLASSIFICATION_TYPE><NORAD_CAT_ID>21576</NORAD_CAT_ID><ELEMENT_SET_NO>999</ELEMENT_SET_NO><REV_AT_EPOCH>74725</REV_AT_EPOCH><BSTAR>.55681E-3</BSTAR><MEAN_MOTION_DOT>.1815E-4</MEAN_MOTION_DOT><MEAN_MOTION_DDOT>0</MEAN_MOTION_DDOT></tleParameters></data></segment></body></omm>
<omm id="CCSDS_OMM_VERS" version="2.0">
<header><CREATION_DATE/><ORIGINATOR/></header><body><segment><metadata><OBJECT_NAME>ORBCOMM FM01</OBJECT_NAME><OBJECT_ID>1995-017A</OBJECT_ID><CENTER_NAME>EARTH</CENTER_NAME><REF_FRAME>TEME</REF_FRAME><TIME_SYSTEM>UTC</TIME_SYSTEM><MEAN_ELEMENT_THEORY>SGP4</MEAN_ELEMENT_THEORY></metadata><data><meanElements><EPOCH>2024-10-18T18:59:51.711936</EPOCH><MEAN_MOTION>14.83939725</MEAN_MOTION><ECCENTRICITY>.0008051</ECCENTRICITY><INCLINATION>69.9655</INCLINATION><RA_OF_ASC_NODE>313.6453</RA_OF_ASC_NODE><ARG_OF_PERICENTER>318.2007</ARG_OF_PERICENTER><MEAN_ANOMALY>41.8529</MEAN_ANOMALY></meanElements><tleParameters><EPHEMERIS_TYPE>0</EPHEMERIS_TYPE><CLASSIFICATION_TYPE>U</CLASSIFICATION_TYPE><NORAD_CAT_ID>23545</NORAD_CAT_ID><ELEMENT_SET_NO>999</ELEMENT_SET_NO><REV_AT_EPOCH>57661</REV_AT_EPOCH><BSTAR>.24767E-2</BSTAR><MEAN_MOTION_DOT>.20614E-3</MEAN_MOTION_DOT><MEAN_MOTION_DDOT>0</MEAN_MOTION_DDOT></tleParameters></data></segment></body></omm>
<omm id="CCSDS_OMM_VERS" version="2.0">
<header><CREATION_DATE/><ORIGINATOR/></header><body><segment><metadata><OBJECT_NAME>ORBCOMM FM02</OBJECT_NAME><OBJECT_ID>1995-017B</OBJECT_ID><CENTER_NAME>EARTH</CENTER_NAME><REF_FRAME>TEME</REF_FRAME><TIME_SYSTEM>UTC</TIME_SYSTEM><MEAN_ELEMENT_THEORY>SGP4</MEAN_ELEMENT_THEORY></metadata><data><meanElements><EPOCH>2024-10-18T20:31:07.838112</EPOCH><MEAN_MOTION>14.83770536</MEAN_MOTION><ECCENTRICITY>.0010011</ECCENTRICITY><INCLINATION>69.9684</INCLINATION><RA_OF_ASC_NODE>333.1445</RA_OF_ASC_NODE><ARG_OF_PERICENTER>318.0808</ARG_OF_PERICENTER><MEAN_ANOMALY>41.9576</MEAN_ANOMALY></meanElements><tleParameters><EPHEMERIS_TYPE>0</EPHEMERIS_TYPE><CLASSIFICATION_TYPE>U</CLASSIFICATION_TYPE><NORAD_CAT_ID>23546</NORAD_CAT_ID><ELEMENT_SET_NO>999</ELEMENT_SET_NO><REV_AT_EPOCH>57626</REV_AT_EPOCH><BSTAR>.24687E-2</BSTAR><MEAN_MOTION_DOT>.20468E-3</MEAN_MOTION_DOT><MEAN_MOTION_DDOT>0</MEAN_MOTION_DDOT></tleParameters></data></segment></body></omm>
<omm id="CCSDS_OMM_VERS" version="2.0">
<header><CREATION_DATE/><ORIGINATOR/></header><body><segment><metadata><OBJECT_NAME>ORBCOMM FM08</OBJECT_NAME><OBJECT_ID>1997-084A</OBJECT_ID><CENTER_NAME>EARTH</CENTER_NAME><REF_FRAME>TEME</REF_FRAME><TIME_SYSTEM>UTC</TIME_SYSTEM><MEAN_ELEMENT_THEORY>SGP4</MEAN_ELEMENT_THEORY></metadata><data><meanElements><EPOCH>2024-10-18T19:58:39.629568</EPOCH><MEAN_MOTION>14.43940560</MEAN_MOTION><ECCENTRICITY>.0006815</ECCENTRICITY><INCLINATION>45.0135</INCLINATION><RA_OF_ASC_NODE>85.0401</RA_OF_ASC_NODE><ARG_OF_PERICENTER>123.6927</ARG_OF_PERICENTER><MEAN_ANOMALY>236.4575</MEAN_ANOMALY></meanElements><tleParameters><EPHEMERIS_TYPE>0</EPHEMERIS_TYPE><CLASSIFICATION_TYPE>U</CLASSIFICATION_TYPE><NORAD_CAT_ID>25112</NORAD_CAT_ID><ELEMENT_SET_NO>999</ELEMENT_SET_NO><REV_AT_EPOCH>40646</REV_AT_EPOCH><BSTAR>.25522E-2</BSTAR><MEAN_MOTION_DOT>.8666E-4</MEAN_MOTION_DOT><MEAN_MOTION_DDOT>0</MEAN_MOTION_DDOT></tleParameters></data></segment></body></omm>
<omm id="CCSDS_OMM_VERS" version="2.0">
<header><CREATION_DATE/><ORIGINATOR/></header><body><segment><metadata><OBJECT_NAME>ORBCOMM FM10</OBJECT_NAME><OBJECT_ID>1997-084B</OBJECT_ID><CENTER_NAME>EARTH</CENTER_NAME><REF_FRAME>TEME</REF_FRAME><TIME_SYSTEM>UTC</TIME_SYSTEM><MEAN_ELEMENT_THEORY>SGP4</MEAN_ELEMENT_THEORY></metadata><data><meanElements><EPOCH>2024-10-18T20:26:21.722784</EPOCH><MEAN_MOTION>14.43810792</MEAN_MOTION><ECCENTRICITY>.0003951</ECCENTRICITY><INCLINATION>45.0142</INCLINATION><RA_OF_ASC_NODE>86.9574</RA_OF_ASC_NODE><ARG_OF_PERICENTER>96.1422</ARG_OF_PERICENTER><MEAN_ANOMALY>263.9879</MEAN_ANOMALY></meanElements><tleParameters><EPHEMERIS_TYPE>0</EPHEMERIS_TYPE><CLASSIFICATION_TYPE>U</CLASSIFICATION_TYPE><NORAD_CAT_ID>25113</NORAD_CAT_ID><ELEMENT_SET_NO>999</ELEMENT_SET_NO><REV_AT_EPOCH>58161</REV_AT_EPOCH><BSTAR>.25448E-2</BSTAR><MEAN_MOTION_DOT>.8615E-4</MEAN_MOTION_DOT><MEAN_MOTION_DDOT>0</MEAN_MOTION_DDOT></tleParameters></data></segment></body></omm>
<omm id="CCSDS_OMM_VERS" version="2.0">
<header><CREATION_DATE/><ORIGINATOR/></header><body><segment><metadata><OBJECT_NAME>ORBCOMM FM11</OBJECT_NAME><OBJECT_ID>1997-084C</OBJECT_ID><CENTER_NAME>EARTH</CENTER_NAME><REF_FRAME>TEME</REF_FRAME><TIME_SYSTEM>UTC</TIME_SYSTEM><MEAN_ELEMENT_THEORY>SGP4</MEAN_ELEMENT_THEORY></metadata><data><meanElements><EPOCH>2024-10-18T19:37:14.476224</EPOCH><MEAN_MOTION>14.43623976</MEAN_MOTION><ECCENTRICITY>.000476</ECCENTRICITY><INCLINATION>45.0130</INCLINATION><RA_OF_ASC_NODE>87.3518</RA_OF_ASC_NODE><ARG_OF_PERICENTER>93.6892</ARG_OF_PERICENTER><MEAN_ANOMALY>266.4502</MEAN_ANOMALY></meanElements><tleParameters><EPHEMERIS_TYPE>0</EPHEMERIS_TYPE><CLASSIFICATION_TYPE>U</CLASSIFICATION_TYPE><NORAD_CAT_ID>25114</NORAD_CAT_ID><ELEMENT_SET_NO>999</ELEMENT_SET_NO><REV_AT_EPOCH>40657</REV_AT_EPOCH><BSTAR>.22532E-2</BSTAR><MEAN_MOTION_DOT>.7581E-4</MEAN_MOTION_DOT><MEAN_MOTION_DDOT>0</MEAN_MOTION_DDOT></tleParameters></data></segment></body></omm>
<omm id="CCSDS_OMM_VERS" version="2.0">
<header><CREATION_DATE/><ORIGINATOR/></header><body><segment><metadata><OBJECT_NAME>ORBCOMM FM12</OBJECT_NAME><OBJECT_ID>1997-084D</OBJECT_ID><CENTER_NAME>EARTH</CENTER_NAME><REF_FRAME>TEME</REF_FRAME><TIME_SYSTEM>UTC</TIME_SYSTEM><MEAN_ELEMENT_THEORY>SGP4</MEAN_ELEMENT_THEORY></metadata><data><meanElements><EPOCH>2024-10-18T17:05:44.349504</EPOCH><MEAN_MOTION>14.43589836</MEAN_MOTION><ECCENTRICITY>.0003869</ECCENTRICITY><INCLINATION>45.0140</INCLINATION><RA_OF_ASC_NODE>87.6076</RA_OF_ASC_NODE><ARG_OF_PERICENTER>95.8652</ARG_OF_PERICENTER><MEAN_ANOMALY>264.2640</MEAN_ANOMALY></meanElements><tleParameters><EPHEMERIS_TYPE>0</EPHEMERIS_TYPE><CLASSIFICATION_TYPE>U</CLASSIFICATION_TYPE><NORAD_CAT_ID>25115</NORAD_CAT_ID><ELEMENT_SET_NO>999</ELEMENT_SET_NO><REV_AT_EPOCH>40635</REV_AT_EPOCH><BSTAR>.21505E-2</BSTAR><MEAN_MOTION_DOT>.7222E-4</MEAN_MOTION_DOT><MEAN_MOTION_DDOT>0</MEAN_MOTION_DDOT></tleParameters></data></segment></body></omm>
<omm id="CCSDS_OMM_VERS" version="2.0">
<header><CREATION_DATE/><ORIGINATOR/></header><body><segment><metadata><OBJECT_NAME>ORBCOMM FM09</OBJECT_NAME><OBJECT_ID>1997-084E</OBJECT_ID><CENTER_NAME>EARTH</CENTER_NAME><REF_FRAME>TEME</REF_FRAME><TIME_SYSTEM>UTC</TIME_SYSTEM><MEAN_ELEMENT_THEORY>SGP4</MEAN_ELEMENT_THEORY></metadata><data><meanElements><EPOCH>2024-10-18T20:47:56.429376</EPOCH><MEAN_MOTION>14.43532181</MEAN_MOTION><ECCENTRICITY>.0004617</ECCENTRICITY><INCLINATION>45.0142</INCLINATION><RA_OF_ASC_NODE>87.6115</RA_OF_ASC_NODE><ARG_OF_PERICENTER>74.7881</ARG_OF_PERICENTER><MEAN_ANOMALY>285.3480</MEAN_ANOMALY></meanElements><tleParameters><EPHEMERIS_TYPE>0</EPHEMERIS_TYPE><CLASSIFICATION_TYPE>U</CLASSIFICATION_TYPE><NORAD_CAT_ID>25116</NORAD_CAT_ID><ELEMENT_SET_NO>999</ELEMENT_SET_NO><REV_AT_EPOCH>40658</REV_AT_EPOCH><BSTAR>.23628E-2</BSTAR><MEAN_MOTION_DOT>.7941E-4</MEAN_MOTION_DOT><MEAN_MOTION_DDOT>0</MEAN_MOTION_DDOT></tleParameters></data></segment></body></omm>

</ndm>
